 1996 11 1 0523  7.6 LV 15.955 -62.049  0.1  MVO  6 0.4                        1
 GAP=356        0.61     999.9    41.7  0.0  0.1012E+05  0.1230E+00 -0.6887E+00E
 1996 11 1 0523  7.583  15.95540  -62.04941    0.100  0.392                    H
 ACTION:UP  03-03-10 15:11 OP:eed  STATUS:               ID:19961101052313     I
 9611-01-0523-13S.MVO_21_1                                                     6
 VOLC MAIN h                                                                   3
 STAT SP IPHASW D HRMM SECON CODA AMPLIT PERI AZIMU VELO SNR AR TRES W  DIS CAZ7
 MBGE SE IP   3 D  52325.374                                           82.7 349 
 MBGE SZ IP   3 D  52325.458                                           82.7 349 
 MBGE SN IP   3 D  52325.563                              21     1.9 2 82.7 349 
 MBRY SZ IP   3    52324.854                              21     1.0 2 83.6 352 
 MBGA SE IP     D  52323.836                              21    -0.310 84.8 350 
 MBGA SZ IP     D  52323.838                              21    -0.310 84.8 350 
 MBGA    IP        523 23.86                              21    -0.210 84.8 350 
 MBGA SN EP        52323.861                              21    -0.210 84.8 350 
 MBLG    IP        523 24.24                              21     0.010 86.0 352 
 MBLG SZ IP     D  52324.316                              21     0.110 86.0 352 
 MBLG AN IP   2 D  52324.318                              21     0.1 5 86.0 352 
 MBGH    EP        523 24.70                              21     0.410 86.6 349 
 MBWH AN EP   3 D  52324.661                              21     0.1 2 88.4 350 
 MBWH    EP        523 24.66                              21     0.110 88.4 350 
 MBWH SZ IP     D  52324.681                              21     0.110 88.4 350 
                                                                                
