 1996 11 1 0836 28.0 LV 16.711 -62.178  2.6  BGS  8 0.1                        1
 ACTION:SPL 02-05-31 13:48 OP:lo   STATUS:               ID:19961101083617     I
 9611-01-0836-17S.MVO_21_1                                                     6
 VOLC MAIN h                                                                   3
 STAT SP IPHASW D HRMM SECON CODA AMPLIT PERI AZIMU VELO SNR AR TRES W  DIS CAZ7

