 1996 11 1  730 49.0 LV                                                        1
 ACTION:SPL 02-05-31 13:48 OP:lo   STATUS:               ID:19961101073049     I
 9611-01-0730-49S.MVO_21_1                                                     6
 VOLC MAIN t                                                                   3
 STAT SP IPHASW D HRMM SECON CODA AMPLIT PERI AZIMU VELO SNR AR TRES W  DIS CAZ7

