 1996 11 1 1146 42.9 LV 16.630 -62.156  3.1  MVO  8 0.4                        1
 GAP=324        1.02      90.3     4.2  0.0  0.5925E+02 -0.1630E+09  0.2184E+09E
 1996 11 1 1146 42.903  16.62963  -62.15570    3.100  0.383                    H
 ACTION:UP  03-03-10 16:47 OP:eed  STATUS:               ID:19961101114634     I
 9611-01-1146-34S.MVO_21_1                                                     6
 VOLC MAIN h                                                                   3
 STAT SP IPHASW D HRMM SECON CODA AMPLIT PERI AZIMU VELO SNR AR TRES W  DIS CAZ7
 MBGE SZ IP     D 114646.611                              25     0.510 7.82 329 
 MBGE    IP       1146 46.62                              25     0.510 7.82 329 
 MBGE SE EP   4   114646.942                              25     0.8 0 7.82 329 
 MBGE SN EP   3   114646.943                              25     0.8 2 7.82 329 
 MBRY SZ IP       114646.523                                           8.22   2 
 MBRY    IP       1146 46.53                              25     0.210 8.22   2 
 MBRY AN IP       114646.537                              25     0.310 8.22   2 
 MBGA SE IP       114646.035                                           9.58 339 
 MBGA    IP       1146 46.04                              25    -0.510 9.58 339 
 MBGA SZ IP       114646.039                              25    -0.510 9.58 339 
 MBGA SN IP       114646.090                              25    -0.510 9.58 339 
 MBLG SZ EP   3   114646.497                              25    -0.2 2 10.6 356 
 MBLG AN EP   4   114646.511                              25    -0.1 0 10.6 356 
 MBLG    EP       1146 46.52                              25    -0.110 10.6 356 
 MBGH SZ IP       114646.829                              25     0.010 11.7 331 
 MBGH    IP       1146 46.84                              25     0.010 11.7 331 
 MBBE    EP       1146 46.97                              25     0.010 12.6 358 
 MBBE SZ IP   4   114647.901                              25     1.0 0 12.6 358 
 MBBE SE IP   4   114648.139                              25     1.2 0 12.6 358 
 MBBE SN EP   4   114648.307                              25     1.4 0 12.6 358 
 MBWH    IP       1146 46.82                              25    -0.310 13.0 343 
 MBWH AN IP       114646.836                                           13.0 343 
 MBWH SZ IP       114646.867                              25    -0.210 13.0 343 
 MBGB    EP       1146 47.88                              25     0.710 13.7 326 
                                                                                
