 1996 11 1 2231 57.1 LV 16.711 -62.178  1.5  BGS  7 0.1                        1
 ACTION:SPL 02-05-31 13:48 OP:lo   STATUS:               ID:19961101223146     I
 9611-01-2231-46S.MVO_21_1                                                     6
 VOLC MAIN h                                                                   3
 STAT SP IPHASW D HRMM SECON CODA AMPLIT PERI AZIMU VELO SNR AR TRES W  DIS CAZ7
 MBGA    IP       2231 57.71                                     0.010    1 265 
 MBLG    IP       2231 58.14                                     0.110    2  46 
 MBRY    IP       2231 58.21                                     0.010    3 107 
 MBGE    IP       2231 58.26                                     0.010    3 216 
 MBGH    IP       2231 58.55                                     0.010    4 291 
 MBWH    IP       2231 58.49                                    -0.110    4 338 
 MBGB    EP       2231 59.55                                     0.110    6 294 
