 1996 11 2 0548  0.4 LV 16.715 -62.178  3.2  BGS  8 0.1                        1
 ACTION:SPL 02-05-31 13:48 OP:lo   STATUS:               ID:19961102054742     I
 9611-02-0547-42S.MVO_21_1                                                     6
 VOLC MAIN t                                                                   3
 STAT SP IPHASW D HRMM SECON CODA AMPLIT PERI AZIMU VELO SNR AR TRES W  DIS CAZ7
 MBGA    IP        548  1.75                                     0.210    1 246 
 MBGA    ES        548  2.32                                    -0.110    1 246 
 MBLG    IP        548  1.86                                     0.210    2  56 
 MBRY    IP        548  1.94                                     0.010    3 115 
 MBGE    IP        548  2.00                                     0.010    3 211 
 MBGE    IS        548  2.92                                    -0.210    3 211 
 MBGH    IP        548  2.18                                     0.110    3 285 
 MBWH    IP        548  2.07                                     0.010    3 336 
 MBBE    IP        548  2.12                                     0.010    4  31 
 MBBE    IS        548  3.04                                    -0.310    4  31 
 MBGB    IP        548  2.65                                     0.010    6 290 
 MBGB    ES        548  4.21                                     0.010    6 290 
