 1996 11 2 0045 12.0 LV 16.711 -62.178  2.4  BGS  8 0.1                        1
 ACTION:SPL 02-05-31 13:48 OP:lo   STATUS:               ID:19961102004501     I
 9611-02-0045-01S.MVO_21_1                                                     6
 VOLC MAIN h                                                                   3
 STAT SP IPHASW D HRMM SECON CODA AMPLIT PERI AZIMU VELO SNR AR TRES W  DIS CAZ7
 MBGA    IP        045 12.76                                    -0.110    1 263 
 MBLG    IP        045 13.18                                     0.110    2  49 
 MBRY    IP        045 13.25                                     0.010    3 107 
 MBGE    IP        045 13.29                                     0.010    3 214 
 MBGH    IP        045 13.60                                     0.110    3 291 
 MBWH    IP        045 13.56                                     0.010    4 339 
 MBBE    IP        045 13.64                                     0.010    4  29 
 MBGB    EP        045 14.29                                    -0.110    6 294 
