 1996 11 4  843 35.0 LV                                                        1
 ACTION:SPL 02-05-31 13:48 OP:lo   STATUS:               ID:19961104084335     I
 9611-04-0843-35S.MVO_21_M                                                     6
 VOLC MAIN 1                                                                   3
 STAT SP IPHASW D HRMM SECON CODA AMPLIT PERI AZIMU VELO SNR AR TRES W  DIS CAZ7

