 1996 11 4  729 42.0 LV                                                        1
 ACTION:SPL 02-05-31 13:48 OP:lo   STATUS:               ID:19961104072942     I
 9611-04-0729-42S.MVO_21_1                                                     6
 VOLC MAIN r                                                                   3
 STAT SP IPHASW D HRMM SECON CODA AMPLIT PERI AZIMU VELO SNR AR TRES W  DIS CAZ7

