 1996 11 5  943 36.0 LV                                                        1
 ACTION:SPL 02-05-31 13:48 OP:lo   STATUS:               ID:19961105094336     I
 9611-05-0943-36S.MVO_21_1                                                     6
 VOLC MAIN l                                                                   3
 STAT SP IPHASW D HRMM SECON CODA AMPLIT PERI AZIMU VELO SNR AR TRES W  DIS CAZ7

