 1996 11 1 0653 39.4 LV 16.713 -62.177  0.0  MVO  8 0.2                        1
 GAP=104        0.39       0.4     0.3  3.4 -0.5060E-02 -0.5538E-01  0.5911E+00E
 1996 11 1 0653 39.404  16.71301  -62.17676    0.001  0.171                    H
 ACTION:UP  03-03-10 16:12 OP:eed  STATUS:               ID:19961101065328     I
 9611-01-0653-28S.MVO_21_1                                                     6
 VOLC MAIN h                                                                   3
 STAT SP IPHASW D HRMM SECON CODA AMPLIT PERI AZIMU VELO SNR AR TRES W  DIS CAZ7
 MBGA SE IP        65339.920                              68     0.010 1.30 256 
 MBGA    IP        653 40.00                              68     0.010 1.30 256 
 MBGA SZ IP     D  65340.023                              68     0.110 1.30 256 
 MBGA SN IP        65340.047                                           1.30 256 
 MBGA SN IS   4 D  65341.658                              68     1.3 0 1.30 256 
 MBLG AN EP   3    65340.423                              71     0.2 2 2.04  49 
 MBLG SZ EP   3 D  65340.475                              71     0.2 2 2.04  49 
 MBLG    EP        653 40.48                              71     0.210 2.04  49 
 MBRY    IP        653 40.43                              77    -0.110 2.71 112 
 MBRY SZ IP     D  65340.431                              77    -0.110 2.71 112 
 MBRY AN IP     D  65340.489                              77     0.010 2.71 112 
 MBRY AN IS   3    65342.122                              77     0.8 2 2.71 112 
 MBGE SZ IP   2    65340.505                              75    -0.2 5 3.12 215 
 MBGE    IP        653 40.53                              75    -0.210 3.12 215 
 MBGE SN EP        65340.789                              75     0.110 3.12 215 
 MBGE SE IP     D  65340.796                              75     0.110 3.12 215 
 MBGE SE IS   4 D  65344.173                              75     2.5 0 3.12 215 
 MBWH AN IP        65340.786                                           3.56 335 
 MBWH SZ IP        65340.801                              81     0.010 3.56 335 
 MBGH SZ IP        65340.757                              80    -0.110 3.56 287 
 MBGH    IP        653 40.81                              80     0.010 3.56 287 
 MBGH SN IP     D  65340.903                                           3.56 287 
 MBGH SE IP     D  65340.965                              80     0.110 3.56 287 
 MBGH SZ IS   4    65343.819                              80     1.9 0 3.56 287 
 MBWH    IP        653 40.71                              81    -0.110 3.56 335 
 MBBE SZ EP   3    65340.869                              77    -0.1 2 3.81  28 
 MBBE    EP        653 40.90                              77    -0.110 3.81  28 
 MBBE SE EP   3 D  65341.822                              77     0.9 2 3.81  28 
 MBBE SN EP   3    65341.840                                           3.81  28 
 MBGB SE EP   4 D  65341.623                              83    -0.1 0 5.85 291 
 MBGB SZ IP   4 D  65341.760                              83     0.0 0 5.85 291 
 MBGB    EP        653 41.89                              83     0.110 5.85 291 
 MBGB SN EP   4 D  65342.110                              83     0.3 0 5.85 291 
                                                                                
