 1996 11 1 0954 24.8 LV 16.715 -62.178  0.2  MVO  8 0.1                        1
 GAP= 97        0.36       0.5     0.3  4.5 -0.1113E-01  0.3227E-01  0.1030E+01E
 1996 11 1 0954 24.830  16.71481  -62.17825    0.151  0.137                    H
 ACTION:UP  03-03-10 16:37 OP:eed  STATUS:               ID:19961101095414     I
 9611-01-0954-14S.MVO_21_1                                                     6
 VOLC MAIN h                                                                   3
 STAT SP IPHASW D HRMM SECON CODA AMPLIT PERI AZIMU VELO SNR AR TRES W  DIS CAZ7
 MBGA    IP        954 25.20                              75    -0.110 1.22 245 
 MBGA SZ EP        95425.308                              75     0.010 1.22 245 
 MBGA SN EP        95425.316                              75     0.010 1.22 245 
 MBGA SE EP     D  95425.331                              75     0.010 1.22 245 
 MBLG    EP        954 25.77                              76     0.110 2.05  57 
 MBLG AN EP   3    95425.844                              76     0.2 2 2.05  57 
 MBLG SZ EP   3    95425.939                              76     0.3 2 2.05  57 
 MBRY SZ IP        95425.991                              81     0.010 2.93 114 
 MBRY    IP        954 26.02                              81     0.010 2.93 114 
 MBRY AN IP   2 D  95426.018                              81     0.0 5 2.93 114 
 MBGE SZ EP   3 D  95425.928                              79    -0.2 2 3.20 211 
 MBGE    EP        954 26.10                              79     0.010 3.20 211 
 MBGE SE E      D  95426.282                                           3.20 211 
 MBGE SN EP   3 D  95426.373                                           3.20 211 
 MBGE SN IS   4    95430.385                              79     3.3 0 3.20 211 
 MBWH AN EP        95425.930                              83    -0.210 3.32 336 
 MBWH SZ EP   3 D  95425.955                              83    -0.2 2 3.32 336 
 MBWH    EP        954 26.00                              83    -0.210 3.32 336 
 MBGH SZ IP   2    95426.349                              82     0.2 5 3.35 285 
 MBGH    IP        954 26.37                              82     0.210 3.35 285 
 MBGH SE EP   3    95426.422                              82     0.2 2 3.35 285 
 MBGH SN IP        95426.456                              82     0.310 3.35 285 
 MBBE    EP        954 26.43                              79     0.110 3.72  31 
 MBGB    EP        954 27.08                              84     0.010 5.63 290 
                                                                                
