 1996 11 1 0857 53.4 LV 16.714 -62.177  0.1  MVO  8 0.1                        1
 GAP=100        0.30       0.4     0.3  3.2 -0.5055E-01 -0.4315E+00  0.6107E+00E
 1996 11 1 0857 53.394  16.71421  -62.17663    0.054  0.119                    H
 ACTION:UP  03-03-10 16:32 OP:eed  STATUS:               ID:19961101085717     I
 9611-01-0857-17S.MVO_21_1                                                     6
 VOLC MAIN h                                                                   3
 STAT SP IPHASW D HRMM SECON CODA AMPLIT PERI AZIMU VELO SNR AR TRES W  DIS CAZ7
 MBGA SZ IP     D  85753.953                              71     0.010 1.35 251 
 MBGA SE EP   3 D  85753.960                              71     0.0 2 1.35 251 
 MBGA    IP        857 53.98                              71     0.010 1.35 251 
 MBGA SN EP   2    85753.983                              71     0.0 5 1.35 251 
 MBLG SZ IP     D  85754.307                              71     0.110 1.94  52 
 MBLG AN IP     D  85754.355                                           1.94  52 
 MBLG    IP        857 54.37                              71     0.210 1.94  52 
 MBRY SZ EP   3    85754.392                              78    -0.1 2 2.75 115 
 MBRY AN EP   4 D  85754.403                              78    -0.1 0 2.75 115 
 MBRY    IP        857 54.43                              78    -0.110 2.75 115 
 MBGE    EP        857 54.68                              77     0.010 3.24 214 
 MBGE SZ EP   4    85754.930                              77     0.2 0 3.24 214 
 MBGE SN EP   3    85755.000                              77     0.3 2 3.24 214 
 MBGE SE EP   3 D  85755.336                              77     0.6 2 3.24 214 
 MBGE SZ IS   4 D  85758.282                              77     2.6 0 3.24 214 
 MBWH    IP        857 54.72                              81    -0.110 3.45 334 
 MBWH SZ IP     D  85754.756                              81     0.010 3.45 334 
 MBWH AN IP     D  85754.762                              81     0.010 3.45 334 
 MBWH AN IS   4    85756.838                              81     1.0 0 3.45 334 
 MBWH SZ IS   4    85756.844                              81     1.0 0 3.45 334 
 MBGH SZ IP   2 D  85754.729                              80    -0.1 5 3.54 285 
 MBGH    IP        857 54.81                              80     0.010 3.54 285 
 MBBE SZ EP   3    85754.787                              77    -0.1 2 3.69  28 
 MBBE    EP        857 54.81                              77    -0.110 3.69  28 
 MBGB SZ EP   4    85755.844                              83     0.1 0 5.81 290 
 MBGB    EP        857 55.86                              83     0.110 5.81 290 
                                                                                
