 1996 11 1 1840 20.2 LV 16.714 -62.177  1.8  BGS  7 0.1                        1
 ACTION:SPL 02-05-31 13:48 OP:lo   STATUS:               ID:19961101184009     I
 9611-01-1840-09S.MVO_21_1                                                     6
 VOLC MAIN h                                                                   3
 STAT SP IPHASW D HRMM SECON CODA AMPLIT PERI AZIMU VELO SNR AR TRES W  DIS CAZ7
 MBGA    IP       1840 20.87                                     0.010    1 252 
 MBLG    IP       1840 21.23                                     0.110    2  52 
 MBRY    IP       1840 21.33                                    -0.110    3 113 
 MBGE    EP       1840 21.57                                     0.110    3 214 
 MBGH    IP       1840 21.69                                     0.010    3 286 
 MBWH    IP       1840 21.61                                     0.010    3 335 
 MBBE    IP       1840 21.68                                    -0.110    4  29 
