 1996 11 1 1424 40.0 LV 16.714 -62.176  1.3  BGS  8 0.1                        1
 ACTION:SPL 02-05-31 13:48 OP:lo   STATUS:               ID:19961101142429     I
 9611-01-1424-29S.MVO_21_1                                                     6
 VOLC MAIN h                                                                   3
 STAT SP IPHASW D HRMM SECON CODA AMPLIT PERI AZIMU VELO SNR AR TRES W  DIS CAZ7
 MBGA    IP       1424 40.63                                     0.010    1 254 
 MBLG    IP       1424 41.00                                     0.210    2  50 
 MBRY    IP       1424 41.08                                    -0.110    3 114 
 MBGE    EP       1424 41.34                                     0.010    3 215 
 MBGH    IP       1424 41.47                                     0.010    4 286 
 MBWH    IP       1424 41.38                                    -0.110    4 334 
 MBBE    IP       1424 41.43                                    -0.110    4  27 
 MBGB    EP       1424 42.51                                     0.110    6 291 
