 1996 11 1 1320 43.8 LV 16.713 -62.176  0.0  BGS  8 0.1                        1
 ACTION:SPL 02-05-31 13:48 OP:lo   STATUS:               ID:19961101132033     I
 9611-01-1320-33S.MVO_21_1                                                     6
 VOLC MAIN h                                                                   3
 STAT SP IPHASW D HRMM SECON CODA AMPLIT PERI AZIMU VELO SNR AR TRES W  DIS CAZ7
 MBGA    IP       1320 44.41                                     0.010    1 255 
 MBLG    IP       1320 44.78                                     0.110    2  49 
 MBRY    IP       1320 44.87                                    -0.110    3 113 
 MBGE    IP       1320 45.13                                     0.010    3 216 
 MBGH    IP       1320 45.24                                     0.010    4 287 
 MBWH    IP       1320 45.17                                    -0.110    4 334 
 MBBE    EP       1320 45.34                                     0.010    4  27 
 MBGB    EP       1320 46.33                                     0.110    6 291 
