 1996 11 1 1750  4.5 LV 16.712 -62.177  1.8  BGS  8 0.1                        1
 ACTION:SPL 02-05-31 13:48 OP:lo   STATUS:               ID:19961101174953     I
 9611-01-1749-53S.MVO_21_1                                                     6
 VOLC MAIN h                                                                   3
 STAT SP IPHASW D HRMM SECON CODA AMPLIT PERI AZIMU VELO SNR AR TRES W  DIS CAZ7
 MBGA    IP       1750  5.12                                     0.010    1 262 
 MBLG    EP       1750  5.59                                     0.210    2  47 
 MBRY    IP       1750  5.59                                     0.010    3 109 
 MBGE    IP       1750  5.68                                     0.010    3 216 
 MBGH    IP       1750  5.96                                     0.010    4 290 
 MBWH    IP       1750  5.87                                    -0.110    4 337 
 MBBE    EP       1750  6.02                                    -0.110    4  27 
 MBGB    EP       1750  6.92                                     0.110    6 293 
