 1996 11 1 1443 13.1 LV 16.711 -62.177  1.8  BGS  8 0.1                        1
 ACTION:SPL 02-05-31 13:48 OP:lo   STATUS:               ID:19961101144302     I
 9611-01-1443-02S.MVO_21_1                                                     6
 VOLC MAIN h                                                                   3
 STAT SP IPHASW D HRMM SECON CODA AMPLIT PERI AZIMU VELO SNR AR TRES W  DIS CAZ7
 MBGA    IP       1443 13.78                                     0.010    1 264 
 MBLG    IP       1443 14.24                                     0.210    2  47 
 MBRY    IP       1443 14.27                                     0.010    3 108 
 MBGE    IP       1443 14.31                                     0.010    3 216 
 MBGH    IP       1443 14.60                                     0.010    4 290 
 MBWH    IP       1443 14.56                                    -0.110    4 337 
 MBBE    IP       1443 14.65                                    -0.110    4  27 
 MBGB    EP       1443 15.59                                     0.110    6 293 
