 1996 11 1 2333 49.2 LV 16.714 -62.177  1.2  BGS  8 0.1                        1
 ACTION:SPL 02-05-31 13:48 OP:lo   STATUS:               ID:19961101233338     I
 9611-01-2333-38S.MVO_21_1                                                     6
 VOLC MAIN h                                                                   3
 STAT SP IPHASW D HRMM SECON CODA AMPLIT PERI AZIMU VELO SNR AR TRES W  DIS CAZ7
 MBGA    IP       2333 49.79                                     0.010    1 254 
 MBLG    IP       2333 50.17                                     0.110    2  50 
 MBRY    IP       2333 50.27                                    -0.110    3 113 
 MBGE    EP       2333 50.50                                     0.010    3 215 
 MBGH    IP       2333 50.64                                     0.010    4 286 
 MBWH    IP       2333 50.55                                    -0.110    4 334 
 MBBE    EP       2333 50.64                                    -0.110    4  28 
 MBGB    EP       2333 51.65                                     0.110    6 291 
