 1996 11 1 2233 51.9 LV 16.713 -62.176  0.1  BGS  8 0.1                        1
 ACTION:SPL 02-05-31 13:48 OP:lo   STATUS:               ID:19961101223341     I
 9611-01-2233-41S.MVO_21_1                                                     6
 VOLC MAIN h                                                                   3
 STAT SP IPHASW D HRMM SECON CODA AMPLIT PERI AZIMU VELO SNR AR TRES W  DIS CAZ7
 MBGA    IP       2233 52.48                                     0.010    1 255 
 MBLG    IP       2233 52.84                                     0.110    2  49 
 MBRY    IP       2233 52.94                                     0.010    3 113 
 MBGE    EP       2233 53.20                                     0.010    3 216 
 MBGH    IP       2233 53.32                                     0.010    4 286 
 MBWH    IP       2233 53.26                                    -0.110    4 334 
 MBBE    EP       2233 53.35                                    -0.110    4  27 
 MBGB    EP       2233 54.39                                     0.110    6 291 
