 1996 11 2 0411 39.4 LV 16.714 -62.178  1.8  BGS  8 0.1                        1
 ACTION:SPL 02-05-31 13:48 OP:lo   STATUS:               ID:19961102041129     I
 9611-02-0411-29S.MVO_21_1                                                     6
 VOLC MAIN h                                                                   3
 STAT SP IPHASW D HRMM SECON CODA AMPLIT PERI AZIMU VELO SNR AR TRES W  DIS CAZ7
 MBGA    IP        411 40.08                                    -0.110    1 249 
 MBLG    IP        411 40.50                                     0.110    2  54 
 MBRY    IP        411 40.60                                    -0.110    3 113 
 MBGE    EP        411 40.85                                     0.110    3 212 
 MBGH    IP        411 41.00                                     0.110    3 286 
 MBWH    IP        411 40.89                                     0.010    3 336 
 MBBE    EP        411 40.94                                    -0.110    4  30 
 MBGB    EP        411 41.66                                    -0.110    6 291 
