 1996 11 2 0538 35.4 LV 16.712 -62.178  2.5  BGS  8 0.1                        1
 ACTION:SPL 02-05-31 13:48 OP:lo   STATUS:               ID:19961102053825     I
 9611-02-0538-25S.MVO_21_1                                                     6
 VOLC MAIN h                                                                   3
 STAT SP IPHASW D HRMM SECON CODA AMPLIT PERI AZIMU VELO SNR AR TRES W  DIS CAZ7
 MBGA    IP        538 36.27                                    -0.110    1 258 
 MBLG    EP        538 36.60                                     0.010    2  50 
 MBRY    IP        538 36.74                                     0.010    3 109 
 MBGE    IP        538 36.82                                     0.010    3 214 
 MBGH    IP        538 37.09                                     0.110    3 289 
 MBWH    EP        538 37.04                                     0.010    4 338 
 MBBE    IP        538 37.11                                     0.010    4  29 
 MBGB    IP        538 37.72                                    -0.110    6 293 
