 1996 11 2 0337 51.3 LV 16.712 -62.178  0.0  MVO  8 0.3                        1
 GAP=106        0.93       1.5     1.1  9.0 -0.2471E+00 -0.6856E-01  0.6830E+01E
 1996 11 2 0337 51.341  16.71197  -62.17777    0.002  0.250                    H
 ACTION:UP  03-03-17 13:04 OP:eed  STATUS:               ID:19961102033740     I
 9611-02-0337-40S.MVO_21_1                                                     6
 VOLC MAIN h                                                                   3
 STAT SP IPHASW D HRMM SECON CODA AMPLIT PERI AZIMU VELO SNR AR TRES W  DIS CAZ7
 MBGA    EP        337 51.84                              66     0.010 1.17 260 
 MBGA SN IP        33751.877                                           1.17 260 
 MBGA SZ IP        33751.928                              66     0.110 1.17 260 
 MBGA SE IP        33752.030                                           1.17 260 
 MBLG AN EP        33752.123                                           2.20  49 
 MBLG SZ IP        33752.559                              72     0.310 2.20  49 
 MBRY SZ IP        33752.170                              77    -0.310 2.77 109 
 MBRY AN IP        33752.357                                           2.77 109 
 MBGE SE IP        33752.589                                           2.96 215 
 MBGE SZ IP        33752.589                              75     0.010 2.96 215 
 MBGE SN IP        33752.679                                           2.96 215 
 MBGH SN EP        33753.005                              79     0.210 3.49 290 
 MBGH SE IP        33753.005                                           3.49 290 
 MBGH SZ IP        33753.251                                           3.49 290 
 MBWH AN IP        33752.434                              81    -0.410 3.63 337 
 MBWH SZ IP        33752.481                              81    -0.310 3.63 337 
 MBBE SZ EP        33753.294                              77     0.310 3.97  28 
 MBBE SN EP        33753.336                                           3.97  28 
 MBBE SE EP        33753.396                                           3.97  28 
 MBGB SZ EP        33753.726                              83     0.110 5.79 293 
 MBGB SN EP        33753.743                                           5.79 293 
 MBGB SE EP        33753.794                                           5.79 293 
 MBGB SE IS   3    33755.805                              83     0.4 2 5.79 293 
                                                                                
