 1996 11 2 2036  3.0 LV                                                        1
 ACTION:SPL 02-05-31 13:48 OP:lo   STATUS:               ID:19961102203603     I
 9611-02-2036-03S.MVO_21_1                                                     6
 VOLC MAIN u                                                                   3
 STAT SP IPHASW D HRMM SECON CODA AMPLIT PERI AZIMU VELO SNR AR TRES W  DIS CAZ7

