 1996 11 4 10 9 48.0 LV                                                        1
 ACTION:SPL 02-05-31 13:48 OP:lo   STATUS:               ID:19961104100948     I
 9611-04-1009-48S.MVO_21_1                                                     6
 VOLC MAIN u                                                                   3
 STAT SP IPHASW D HRMM SECON CODA AMPLIT PERI AZIMU VELO SNR AR TRES W  DIS CAZ7

