 1996 11 5 1853 22.3 LV 16.711 -62.178  2.8  BGS  8 0.1                        1
 ACTION:SPL 02-05-31 13:48 OP:lo   STATUS:               ID:19961105185311     I
 9611-05-1853-11S.MVO_21_1                                                     6
 VOLC MAIN h                                                                   3
 STAT SP IPHASW D HRMM SECON CODA AMPLIT PERI AZIMU VELO SNR AR TRES W  DIS CAZ7
 MBLG    IP       1853 23.63                                     0.110    2  47 
 MBRY    IP       1853 23.67                                     0.010    3 107 
 MBGE    IP       1853 23.74                                     0.010    3 216 
 MBGH    IP       1853 24.04                                     0.110    4 291 
 MBWH    IP       1853 23.99                                     0.010    4 338 
 MBBE    IP       1853 24.05                                     0.010    4  28 
 MBGB    IP       1853 24.65                                     0.010    6 294 
 MBGA    IP       1853 23.22                                    -0.110    1 264 
