 1996 11 6  832 44.0 LV                                                        1
 ACTION:SPL 02-05-31 13:48 OP:lo   STATUS:               ID:19961106083244     I
 9611-06-0832-44S.MVO_21_1                                                     6
 VOLC MAIN g                                                                   3
 STAT SP IPHASW D HRMM SECON CODA AMPLIT PERI AZIMU VELO SNR AR TRES W  DIS CAZ7

